satname,norad_id,inclination_deg,eccentricity,mean_motion_rev_per_day,perigee_km,apogee_km,l1,l2
STARLINK-1131,45047,53.0572,0.0001539,15.06388551,546.1808311531804,548.3124642399407,1 45047U 20006D   25254.29377286  .00001130  00000+0  94790-4 0  9997,2 45047  53.0572  12.4977 0001539  83.1897 276.9268 15.06388551309417
STARLINK-1134,45048,53.0475,0.0005949,15.22752067,493.45350413865617,501.63418921002994,1 45048U 20006E   25254.01927552  .00007182  00000+0  31745-3 0  9998,2 45048  53.0475 358.1733 0005949 336.7451  23.3275 15.22752067309598
STARLINK-1156,45054,53.0564,0.0001089,15.06401008,546.4542984436521,547.9626386867058,1 45054U 20006L   25254.06517131  .00001006  00000+0  86386-4 0  9999,2 45054  53.0564  12.9879 0001089  92.1756 267.9358 15.06401008309385
STARLINK-1159,45057,53.0566,0.0001443,15.06420827,546.148408332243,548.1470455044318,1 45057U 20006P   25253.74818181  .00007300  00000+0  50819-3 0  9999,2 45057  53.0566  14.4074 0001443  82.0758 278.0395 15.06420827309348
STARLINK-1166,45060,53.0563,0.0001083,15.0639845,546.4662927058034,547.9663242324168,1 45060U 20006S   25254.02462253  .00000960  00000+0  83308-4 0  9995,2 45060  53.0563  13.1700 0001083  83.0784 277.0328 15.06398450309386
STARLINK-1169,45061,53.0571,0.0001185,15.06402136,546.3843583853013,548.0256644420051,1 45061U 20006T   25254.03199429  .00001269  00000+0  10404-3 0  9998,2 45061  53.0571  13.1363 0001185  93.1967 266.9157 15.06402136309383
STARLINK-1171,45062,53.0566,0.0001362,15.06397493,546.2760080227599,548.1624750629562,1 45062U 20006U   25253.75186496  .00000306  00000+0  39453-4 0  9994,2 45062  53.0566  14.3891 0001362  88.0813 272.0332 15.06397493309345
STARLINK-1133,45064,53.0562,0.0001391,15.06428934,546.1595771654947,548.0861844643359,1 45064U 20006W   25253.56572167  .00009057  00000+0  62565-3 0  9990,2 45064  53.0562 355.2249 0001391  73.9046 286.2096 15.06428934309596
STARLINK-1150,45067,53.044,0.0004011,15.9039145,298.5075508148311,303.8657042288296,1 45067U 20006Z   25254.25004630  .00222082  29148-4  72001-3 0  9995,2 45067  53.0440 304.0835 0004011 328.2655 295.6289 15.90391450  5687
STARLINK-1167,45071,53.0544,0.0001592,15.06403581,546.0980689676098,548.3030964539448,1 45071U 20006AD  25253.98960404 -.00000716  00000+0 -29178-4 0  9998,2 45071  53.0544 353.3259 0001592  78.0629 282.0538 15.06403581309653
STARLINK-1168,45072,53.0557,0.000128,15.06396952,546.3344538238835,548.1073454461894,1 45072U 20006AE  25253.99329688  .00000773  00000+0  70795-4 0  9995,2 45072  53.0557 353.3086 0001280  91.9872 268.1264 15.06396952309658
STARLINK-1172,45074,53.0578,0.0001431,15.06402801,546.2119571398198,548.1939894401758,1 45074U 20006AG  25254.00434677  .00002399  00000+0  17989-3 0  9996,2 45074  53.0578 353.2606 0001431  83.9621 276.1531 15.06402801309658
STARLINK-1153,45080,53.055,0.0001592,15.06394929,546.1245819018195,548.3296178312166,1 45080U 20006AN  25254.24763752  .00000876  00000+0  77708-4 0  9992,2 45080  53.0550 352.1704 0001592  91.6738 268.4433 15.06394929309695
STARLINK-1151,45081,53.056,0.0001473,15.06401438,546.1870474854986,548.2272538722891,1 45081U 20006AP  25253.96749044 -.00000423  00000+0 -94916-5 0  9990,2 45081  53.0560 353.4982 0001473  76.0442 284.0711 15.06401438309659
STARLINK-1190,45083,53.0512,0.0007163,15.71230384,350.556284193025,360.20271993388087,1 45083U 20006AR  25253.50836195  .00077797  00000+0  60086-3 0  9991,2 45083  53.0512 332.8090 0007163 357.0161   3.0812 15.71230384309902
STARLINK-1173,45084,53.0466,0.0010006,15.78363786,328.3589003972793,341.79338253598326,1 45084U 20006AS  25254.25004630  .00064827  00000+0  36809-3 0  9992,2 45084  53.0466 293.6520 0010006 333.9291 203.3312 15.78363786  5947
STARLINK-1179,45085,53.0412,0.0006098,15.89205367,300.43448795407767,308.5846437057644,1 45085U 20006AT  25254.25004630  .00218066  00000+0  72344-3 0  9993,2 45085  53.0412 285.1356 0006098 344.4361  97.6034 15.89205367  6064
STARLINK-1185,45087,53.0557,0.0001224,15.06386256,546.4060138196182,548.1013494584822,1 45087U 20006AV  25254.20893230  .00000680  00000+0  64573-4 0  9999,2 45087  53.0557 332.3391 0001224  84.6453 275.4676 15.06386256309971
STARLINK-1183,45088,53.0564,9.54e-05,15.0640028,546.5500216081791,547.8713779492964,1 45088U 20006AW  25254.23103676 -.00002721  00000+0 -16389-3 0  9992,2 45088  53.0564 332.2407 0000954  42.2222 317.8840 15.06400280309978
STARLINK-1176,45090,53.0499,0.0005768,15.75924464,338.1256217318005,345.8779738489311,1 45090U 20006AY  25254.11250173  .00124654  00000+0  78095-3 0  9997,2 45090  53.0499 291.8808 0005768 312.6582  47.3950 15.75924464310536
STARLINK-1142,45093,53.0385,0.0006248,15.48779985,416.0462702858895,424.54158957593063,1 45093U 20006BB  25254.10847464  .00060753  00000+0  11116-2 0  9993,2 45093  53.0385 283.2536 0006248  20.7655 339.3605 15.48779985310658
STARLINK-1146,45094,53.0475,0.0006484,15.89982307,298.0008022308657,306.66403497290867,1 45094U 20006BC  25254.25004630  .00220096  28727-4  72783-3 0  9997,2 45094  53.0475 286.2828 0006484 336.8741  36.2052 15.89982307  5991
STARLINK-1147,45095,53.0431,0.0009911,15.8743144,302.85902891829664,316.1152374751191,1 45095U 20006BD  25254.25004630  .00133976  00000+0  49002-3 0  9995,2 45095  53.0431 288.8666 0009911 344.0739 126.5526 15.87431440  6050
STARLINK-1152,45096,53.0514,0.0004395,15.20267928,502.0066279618395,508.0569333200219,1 45096U 20006BE  25253.89905291  .00021914  00000+0  10085-2 0  9994,2 45096  53.0514 321.5163 0004395  23.1379 336.9814 15.20267928310090
STARLINK-1184,45098,53.0554,0.0001745,15.06409509,545.9739461383215,548.3908826139377,1 45098U 20006BG  25254.24577757 -.00000731  00000+0 -30197-4 0  9992,2 45098  53.0554 332.1747 0001745  73.0118 287.1063 15.06409509309978
STARLINK-1193,45100,53.0566,0.0001097,15.06396641,546.462140942469,547.9815646747766,1 45100U 20006BJ  25254.24209079 -.00004459  00000+0 -28067-3 0  9998,2 45100  53.0566 332.1904 0001097  95.1998 264.9116 15.06396641309975
STARLINK-1143,45179,53.0557,0.0005229,15.32292451,465.39414407664754,472.55485328196573,1 45179U 20012B   25253.97377487  .00045687  00000+0  14475-2 0  9992,2 45179  53.0557 107.7573 0005229 120.0479 240.1041 15.32292451308113
STARLINK-1201,45182,53.0386,0.0001212,16.0090755,271.0982686055877,272.7102386054612,1 45182U 20012E   25253.71590938  .00366274  68757-4  66734-3 0  9998,2 45182  53.0386  63.2292 0001212  46.3730 313.7400 16.00907550308552
STARLINK-1202,45183,53.055,0.0001407,15.06410829,546.2039769393677,548.152760684151,1 45183U 20012F   25253.97300627  .00002774  00000+0  20501-3 0  9997,2 45183  53.0550 133.3987 0001407  88.7695 271.3455 15.06410829307755
STARLINK-1216,45185,53.054,0.0001149,15.06386647,546.4567560107735,548.0482105140272,1 45185U 20012H   25253.89930521 -.00000909  00000+0 -42173-4 0  9992,2 45185  53.0540 133.7287 0001149  92.8526 267.2595 15.06386647307686
STARLINK-1224,45186,53.0357,9.15e-05,16.04270185,262.0008177305954,263.21607414720165,1 45186U 20012J   25254.33891373  .00514953  13439-3  76736-3 0  9996,2 45186  53.0357  81.1368 0000915  43.1221 316.9882 16.04270185308455
STARLINK-1225,45187,53.0545,0.0001363,15.06383995,546.3166796980158,548.204543086882,1 45187U 20012K   25254.05043283 -.00001697  00000+0 -95130-4 0  9999,2 45187  53.0545 133.0525 0001363  96.9253 263.1891 15.06383995307756
STARLINK-1228,45188,53.0318,0.000822,16.16355668,224.0337291857977,234.89662716672046,1 45188U 20012L   25254.35787169  .01097231  84684-3  73620-3 0  9992,2 45188  53.0318  17.9762 0008220 341.3887  18.6848 16.16355668309347
STARLINK-1230,45189,53.055,0.000122,15.06396745,546.3766403212812,548.0664278035911,1 45189U 20012M   25254.05411263  .00000756  00000+0  69614-4 0  9999,2 45189  53.0550 133.0360 0001220  90.3024 269.8105 15.06396745304987
STARLINK-1234,45190,53.055,0.0001389,15.06393635,546.269132190896,548.1929994395805,1 45190U 20012N   25253.87350303  .00000341  00000+0  41818-4 0  9993,2 45190  53.0550  93.8443 0001389  88.3354 271.7794 15.06393635308191
STARLINK-1237,45192,53.0443,0.0003907,16.13026878,235.96761564171175,241.1378970173073,1 45192U 20012Q   25254.38341157  .00834615  42225-3  70736-3 0  9997,2 45192  53.0443  79.3965 0003907 278.9913  81.0680 16.13026878308544
STARLINK-1240,45194,53.0392,0.0003348,15.94961802,286.18885864436197,290.6527857621095,1 45194U 20012S   25254.25004630  .00318378  50917-4  80900-3 0  9992,2 45194  53.0392  82.4691 0003348  90.1345 191.1592 15.94961802  5960
STARLINK-1244,45196,53.0365,9.46e-05,15.99648475,274.76384731397775,276.02269524130315,1 45196U 20012U   25254.25004630  .00310682  51525-4  60946-3 0  9998,2 45196  53.0365  82.0636 0000946  93.7156  93.0729 15.99648475  5973
STARLINK-1269,45197,53.0553,0.0001469,15.06395631,546.2076126561797,548.2422839965984,1 45197U 20012V   25254.06517178  .00002231  00000+0  16864-3 0  9999,2 45197  53.0553 132.9874 0001469  98.9689 261.1466 15.06395631307737
STARLINK-1154,45198,53.0552,0.0001433,15.06388178,546.2553832620206,548.2401985430924,1 45198U 20012W   25253.92326950  .00001648  00000+0  12955-3 0  9998,2 45198  53.0552 113.6223 0001433  80.1801 279.9350 15.06388178307963
STARLINK-1199,45201,53.0548,0.0001319,15.06393853,546.316941712259,548.1438536317637,1 45201U 20012Z   25253.93432363  .00000868  00000+0  77176-4 0  9990,2 45201  53.0548 113.5731 0001319  92.3438 267.7702 15.06393853308020
STARLINK-1206,45204,53.0389,0.0001954,15.95133837,286.63893685643325,289.2440403297742,1 45204U 20012AC  25254.25004630  .00314094  49921-4  79116-3 0  9995,2 45204  53.0389  63.3349 0001954 103.1185 105.9485 15.95133837  5968
STARLINK-1208,45205,53.039,0.0003924,15.90785313,297.4635576084065,302.7046255210653,1 45205U 20012AD  25254.25004630  .00267479  37536-4  84778-3 0  9999,2 45205  53.0390  64.2897 0003924 106.2118 259.7905 15.90785313  6051
